COSMOS 2242             
1 22626U 93024A   26064.62416765  .00002493  00000+0  21662-3 0  9998
2 22626  82.5151 270.6064 0015446 323.5049  36.5119 14.96528853779787
SL-16 R/B               
1 22803U 93059B   26064.94784179 -.00000114  00000+0 -32481-4 0  9997
2 22803  70.9923  19.0160 0018715 221.8806 138.0887 14.17232136679000
ARIANE 40 R/B           
1 22830U 93061H   26064.71823323  .00000289  00000+0  12174-3 0  9997
2 22830  98.4923 133.6840 0009620 298.2066  61.8146 14.32858647693537
COSMOS 2278             
1 23087U 94023A   26064.70791326  .00000267  00000+0  16398-3 0  9995
2 23087  71.0546 183.4267 0007763  21.1565 338.9877 14.14377027644240
SL-16 R/B               
1 23088U 94023B   26064.47339707 -.00000153  00000+0 -54485-4 0  9997
2 23088  70.9986  79.7425 0005672 289.7929  70.2581 14.15013187645494
SL-16 R/B               
1 23343U 94074B   26065.00539066  .00000578  00000+0  84178-4 0  9998
2 23343  97.7113  95.9723 0005529 224.6064 194.3981 14.79402649686703
SL-16 R/B               
1 23405U 94077B   26064.95131017 -.00000213  00000+0 -84264-4 0  9991
2 23405  70.9852   0.3529 0003315 217.4117 142.6775 14.15561521615703
ARIANE 40+ R/B          
1 23561U 95021B   26064.72621991  .00000423  00000+0  14889-3 0  9990
2 23561  98.4505 136.2624 0007472 147.1612 323.9586 14.39769270618678
SL-16 R/B               
1 23705U 95058B   26064.74612336  .00000120  00000+0  85534-4 0  9995
2 23705  71.0213 188.5336 0010969 132.7336 227.4712 14.15493138567290
SL-16 R/B               
1 24298U 96051B   26064.70426244  .00000123  00000+0  92990-4 0  9991
2 24298  70.7599 183.6736 0015422 154.0650 206.1246 14.12414504521086
ORBVIEW 2 (SEASTAR)     
1 24883U 97037A   26064.93278538  .00000391  00000+0  15219-3 0  9997
2 24883  98.8559 229.1451 0003146  79.4139 280.7399 14.35491444507933
SL-16 R/B               
1 25400U 98043G   26064.87261437  .00000078  00000+0  51437-4 0  9999
2 25400  98.8250  18.2092 0010390  30.9002 329.2787 14.26048600438446
SL-16 R/B               
1 25407U 98045B   26064.68835712 -.00000110  00000+0 -31582-4 0  9998
2 25407  71.0114 189.9878 0006503  14.1090 346.0214 14.16189129426535
ISS (ZARYA)             
1 25544U 98067A   26064.77024645  .00007682  00000+0  15013-3 0  9998
2 25544  51.6317  91.7338 0008144 160.7168 199.4130 15.48462755555720
CZ-4B R/B               
1 25732U 99025C   26064.99736215  .00000057  00000+0  48559-4 0  9990
2 25732  98.6633 109.3662 0036955 357.2768  66.0772 14.18264489387642
OKEAN-O                 
1 25860U 99039A   26064.73154935  .00000953  00000+0  13182-3 0  9990
2 25860  97.9449 124.6631 0001379  70.3542 289.7819 14.80328292433800
SL-16 R/B               
1 25861U 99039B   26064.71514197  .00000837  00000+0  11296-3 0  9994
2 25861  97.9973 123.8176 0013431 270.3696  89.5978 14.81725530436275
